{
  "type": "FeatureCollection",
  "features": [
    {
      "type": "Feature",
      "properties": {
        "norad_id": 43207,
        "name": "BEIDOU-3 M4 (C22)",
        "group": "beidou",
        "lat": 47.99960301552426,
        "lon": -158.3267121366313,
        "alt_km": 21526.95172446225,
        "timestamp": "2025-12-23T18:59:32.233778+00:00",
        "meta_object_name": "BEIDOU-3 M4 (C22)",
        "meta_object_id": "2018-018A",
        "meta_epoch": "2025-12-22T00:08:46.770432",
        "meta_mean_motion": 1.86231216,
        "meta_eccentricity": 0.00041705,
        "meta_inclination": 56.4932,
        "meta_ra_of_asc_node": 68.9979,
        "meta_arg_of_pericenter": 3.572,
        "meta_mean_anomaly": 356.4799,
        "meta_ephemeris_type": 0,
        "meta_classification_type": "U",
        "meta_norad_cat_id": 43207,
        "meta_element_set_no": 999,
        "meta_rev_at_epoch": 5344,
        "meta_bstar": 0,
        "meta_mean_motion_dot": -3.1e-07,
        "meta_mean_motion_ddot": 0,
        "tle_line1": "1 43207U 18018A   25356.00609688 -.00000031  00000+0  00000+0 0  9995",
        "tle_line2": "2 43207  56.4932  68.9979 0004170   3.5720 356.4799  1.86231216 53443"
      },
      "geometry": {
        "type": "Point",
        "coordinates": [
          -158.3267121366313,
          47.99960301552426
        ]
      }
    },
    {
      "type": "Feature",
      "properties": {
        "norad_id": 43208,
        "name": "BEIDOU-3 M3 (C21)",
        "group": "beidou",
        "lat": 52.63292941329478,
        "lon": 128.9980087411649,
        "alt_km": 21531.256499323346,
        "timestamp": "2025-12-23T18:59:32.233788+00:00",
        "meta_object_name": "BEIDOU-3 M3 (C21)",
        "meta_object_id": "2018-018B",
        "meta_epoch": "2025-12-22T14:37:45.965856",
        "meta_mean_motion": 1.86231405,
        "meta_eccentricity": 0.00070517,
        "meta_inclination": 56.4931,
        "meta_ra_of_asc_node": 68.9821,
        "meta_arg_of_pericenter": 313.7983,
        "meta_mean_anomaly": 46.1946,
        "meta_ephemeris_type": 0,
        "meta_classification_type": "U",
        "meta_norad_cat_id": 43208,
        "meta_element_set_no": 999,
        "meta_rev_at_epoch": 5345,
        "meta_bstar": 0,
        "meta_mean_motion_dot": -2.7e-07,
        "meta_mean_motion_ddot": 0,
        "tle_line1": "1 43208U 18018B   25356.60955979 -.00000027  00000+0  00000+0 0  9994",
        "tle_line2": "2 43208  56.4931  68.9821 0007051 313.7983  46.1946  1.86231405 53455"
      },
      "geometry": {
        "type": "Point",
        "coordinates": [
          128.9980087411649,
          52.63292941329478
        ]
      }
    },
    {
      "type": "Feature",
      "properties": {
        "norad_id": 43245,
        "name": "BEIDOU-3 M9 (C29)",
        "group": "beidou",
        "lat": -50.8895445394673,
        "lon": -115.77683132485667,
        "alt_km": 21529.61029207141,
        "timestamp": "2025-12-23T18:59:32.233798+00:00",
        "meta_object_name": "BEIDOU-3 M9 (C29)",
        "meta_object_id": "2018-029A",
        "meta_epoch": "2025-12-21T18:02:44.382048",
        "meta_mean_motion": 1.8622836,
        "meta_eccentricity": 0.00015407,
        "meta_inclination": 54.3576,
        "meta_ra_of_asc_node": 306.1541,
        "meta_arg_of_pericenter": 290.4225,
        "meta_mean_anomaly": 69.56,
        "meta_ephemeris_type": 0,
        "meta_classification_type": "U",
        "meta_norad_cat_id": 43245,
        "meta_element_set_no": 999,
        "meta_rev_at_epoch": 5259,
        "meta_bstar": 0,
        "meta_mean_motion_dot": -5.9e-07,
        "meta_mean_motion_ddot": 0,
        "tle_line1": "1 43245U 18029A   25355.75190257 -.00000059  00000+0  00000+0 0  9997",
        "tle_line2": "2 43245  54.3576 306.1541 0001540 290.4225  69.5600  1.86228360 52597"
      },
      "geometry": {
        "type": "Point",
        "coordinates": [
          -115.77683132485667,
          -50.8895445394673
        ]
      }
    },
    {
      "type": "Feature",
      "properties": {
        "norad_id": 43246,
        "name": "BEIDOU-3 M10 (C30)",
        "group": "beidou",
        "lat": -23.406214952143426,
        "lon": -71.98601878467836,
        "alt_km": 21521.18600421198,
        "timestamp": "2025-12-23T18:59:32.233809+00:00",
        "meta_object_name": "BEIDOU-3 M10 (C30)",
        "meta_object_id": "2018-029B",
        "meta_epoch": "2025-12-22T05:22:40.236384",
        "meta_mean_motion": 1.86229249,
        "meta_eccentricity": 0.0004309,
        "meta_inclination": 54.3545,
        "meta_ra_of_asc_node": 306.1644,
        "meta_arg_of_pericenter": 3.3076,
        "meta_mean_anomaly": 356.6961,
        "meta_ephemeris_type": 0,
        "meta_classification_type": "U",
        "meta_norad_cat_id": 43246,
        "meta_element_set_no": 999,
        "meta_rev_at_epoch": 5258,
        "meta_bstar": 0,
        "meta_mean_motion_dot": -5.7e-07,
        "meta_mean_motion_ddot": 0,
        "tle_line1": "1 43246U 18029B   25356.22407681 -.00000057  00000+0  00000+0 0  9991",
        "tle_line2": "2 43246  54.3545 306.1644 0004309   3.3076 356.6961  1.86229249 52585"
      },
      "geometry": {
        "type": "Point",
        "coordinates": [
          -71.98601878467836,
          -23.406214952143426
        ]
      }
    },
    {
      "type": "Feature",
      "properties": {
        "norad_id": 43539,
        "name": "BEIDOU-2 IGSO-7 (C16)",
        "group": "beidou",
        "lat": -28.694003338393333,
        "lon": 142.13879046843024,
        "alt_km": 35784.12212980805,
        "timestamp": "2025-12-23T18:59:32.233819+00:00",
        "meta_object_name": "BEIDOU-2 IGSO-7 (C16)",
        "meta_object_id": "2018-057A",
        "meta_epoch": "2025-12-15T07:47:07.120608",
        "meta_mean_motion": 1.00256546,
        "meta_eccentricity": 0.00926218,
        "meta_inclination": 55.1766,
        "meta_ra_of_asc_node": 164.6485,
        "meta_arg_of_pericenter": 235.2644,
        "meta_mean_anomaly": 271.8458,
        "meta_ephemeris_type": 0,
        "meta_classification_type": "U",
        "meta_norad_cat_id": 43539,
        "meta_element_set_no": 999,
        "meta_rev_at_epoch": 2728,
        "meta_bstar": 0,
        "meta_mean_motion_dot": -2.3e-07,
        "meta_mean_motion_ddot": 0,
        "tle_line1": "1 43539U 18057A   25349.32438797 -.00000023  00000+0  00000+0 0  9995",
        "tle_line2": "2 43539  55.1766 164.6485 0092621 235.2644 271.8458  1.00256546 27289"
      },
      "geometry": {
        "type": "Point",
        "coordinates": [
          142.13879046843024,
          -28.694003338393333
        ]
      }
    },
    {
      "type": "Feature",
      "properties": {
        "norad_id": 43581,
        "name": "BEIDOU-3 M5 (C23)",
        "group": "beidou",
        "lat": -0.1959088512857729,
        "lon": 8.412794186787794,
        "alt_km": 21533.884389292536,
        "timestamp": "2025-12-23T18:59:32.233830+00:00",
        "meta_object_name": "BEIDOU-3 M5 (C23)",
        "meta_object_id": "2018-062A",
        "meta_epoch": "2025-12-22T23:39:18.716256",
        "meta_mean_motion": 1.86228796,
        "meta_eccentricity": 0.00019159,
        "meta_inclination": 54.09,
        "meta_ra_of_asc_node": 188.2947,
        "meta_arg_of_pericenter": 2.7152,
        "meta_mean_anomaly": 357.3266,
        "meta_ephemeris_type": 0,
        "meta_classification_type": "U",
        "meta_norad_cat_id": 43581,
        "meta_element_set_no": 999,
        "meta_rev_at_epoch": 5035,
        "meta_bstar": 0,
        "meta_mean_motion_dot": 9.6e-07,
        "meta_mean_motion_ddot": 0,
        "tle_line1": "1 43581U 18062A   25356.98563329  .00000096  00000+0  00000+0 0  9997",
        "tle_line2": "2 43581  54.0900 188.2947 0001915   2.7152 357.3266  1.86228796 50357"
      },
      "geometry": {
        "type": "Point",
        "coordinates": [
          8.412794186787794,
          -0.1959088512857729
        ]
      }
    },
    {
      "type": "Feature",
      "properties": {
        "norad_id": 43582,
        "name": "BEIDOU-3 M6 (C24)",
        "group": "beidou",
        "lat": -54.00559440078219,
        "lon": 101.77187064571332,
        "alt_km": 21549.756923995206,
        "timestamp": "2025-12-23T18:59:32.233840+00:00",
        "meta_object_name": "BEIDOU-3 M6 (C24)",
        "meta_object_id": "2018-062B",
        "meta_epoch": "2025-12-21T18:35:38.749056",
        "meta_mean_motion": 1.86229862,
        "meta_eccentricity": 0.00078412,
        "meta_inclination": 54.0893,
        "meta_ra_of_asc_node": 188.325,
        "meta_arg_of_pericenter": 48.2344,
        "meta_mean_anomaly": 311.88,
        "meta_ephemeris_type": 0,
        "meta_classification_type": "U",
        "meta_norad_cat_id": 43582,
        "meta_element_set_no": 999,
        "meta_rev_at_epoch": 5033,
        "meta_bstar": 0,
        "meta_mean_motion_dot": 9.4e-07,
        "meta_mean_motion_ddot": 0,
        "tle_line1": "1 43582U 18062B   25355.77475404  .00000094  00000+0  00000+0 0  9998",
        "tle_line2": "2 43582  54.0893 188.3250 0007841  48.2344 311.8800  1.86229862 50331"
      },
      "geometry": {
        "type": "Point",
        "coordinates": [
          101.77187064571332,
          -54.00559440078219
        ]
      }
    }
  ]
}